IRIDIUM 921             
1 24873U 97034E   24298.80446673  .00109969  00000+0  15816-2 0  9996
2 24873  86.3772 223.2770 0009531  91.1523 269.0831 15.55642377495205
IRIDIUM 26              
1 24903U 97043A   24298.82012355  .00001200  00000+0  40069-3 0  9996
2 24903  86.4018 209.3632 0002355  86.5460 273.6006 14.36718651422943
IRIDIUM 22              
1 24907U 97043E   24298.83752555  .00001115  00000+0  38067-3 0  9994
2 24907  86.4020 212.6914 0002279  81.8517 278.2938 14.35579052423008
DUMMY MASS 1            
1 24925U 97048A   24298.85658419  .00001376  00000+0  15240-3 0  9992
2 24925  86.3344 244.0334 0004226 257.0496 103.0257 14.86537554470163
DUMMY MASS 2            
1 24926U 97048B   24298.84706169  .00001379  00000+0  15363-3 0  9997
2 24926  86.3341 245.6031 0004990 274.3619  85.7036 14.86292817469944
IRIDIUM 29              
1 24944U 97051A   24298.86955354  .00001235  00000+0  41838-3 0  9992
2 24944  86.3957 242.4984 0002223  80.5771 279.5677 14.36028250419719
IRIDIUM 33              
1 24946U 97051C   24298.88175088  .00000908  00000+0  31467-3 0  9997
2 24946  86.3874 241.7399 0009757 117.4501 242.7688 14.34589869419003
IRIDIUM 28              
1 24948U 97051E   24298.85708950  .00001223  00000+0  40638-3 0  9997
2 24948  86.3968 240.1526 0002674  91.5733 268.5771 14.36975932420041
